{
    "links": {
        "self": "http://www.neowsapp.com/rest/v1/neo/3843827?api_key=iIulBulltgU6a56xZRHN4H3l9WmuAYTsLGpBGhQ2"
    },
    "id": "3843827",
    "neo_reference_id": "3843827",
    "name": "(2019 RQ2)",
    "designation": "2019 RQ2",
    "nasa_jpl_url": "http://ssd.jpl.nasa.gov/sbdb.cgi?sstr=3843827",
    "absolute_magnitude_h": 25.4,
    "estimated_diameter": {
        "kilometers": {
            "estimated_diameter_min": 0.022108281,
            "estimated_diameter_max": 0.0494356193
        },
        "meters": {
            "estimated_diameter_min": 22.1082810359,
            "estimated_diameter_max": 49.435619262
        },
        "miles": {
            "estimated_diameter_min": 0.0137374447,
            "estimated_diameter_max": 0.0307178602
        },
        "feet": {
            "estimated_diameter_min": 72.5337327539,
            "estimated_diameter_max": 162.1903570994
        }
    },
    "is_potentially_hazardous_asteroid": false,
    "close_approach_data": [
        {
            "close_approach_date": "1911-10-28",
            "close_approach_date_full": "1911-Oct-28 17:54",
            "epoch_date_close_approach": -1835935560000,
            "relative_velocity": {
                "kilometers_per_second": "7.1741094425",
                "kilometers_per_hour": "25826.7939931604",
                "miles_per_hour": "16047.7654120279"
            },
            "miss_distance": {
                "astronomical": "1.1994826542",
                "lunar": "466.5987524838",
                "kilometers": "179440050.170266554",
                "miles": "111498876.9041802852"
            },
            "orbiting_body": "Juptr"
        },
        {
            "close_approach_date": "2019-09-14",
            "close_approach_date_full": "2019-Sep-14 17:12",
            "epoch_date_close_approach": 1568481120000,
            "relative_velocity": {
                "kilometers_per_second": "17.163679909",
                "kilometers_per_hour": "61789.2476723143",
                "miles_per_hour": "38393.4355883889"
            },
            "miss_distance": {
                "astronomical": "0.0239867708",
                "lunar": "9.3308538412",
                "kilometers": "3588369.819858196",
                "miles": "2229709.6130512648"
            },
            "orbiting_body": "Earth"
        }
    ],
    "orbital_data": {
        "orbit_id": "4",
        "orbit_determination_date": "2019-10-09 05:56:51",
        "first_observation_date": "2019-09-05",
        "last_observation_date": "2019-09-14",
        "data_arc_in_days": 9,
        "observations_used": 35,
        "orbit_uncertainty": "8",
        "minimum_orbit_intersection": ".0023059",
        "jupiter_tisserand_invariant": "2.906",
        "epoch_osculation": "2458733.5",
        "eccentricity": ".715418050740494",
        "semi_major_axis": "2.753062899691274",
        "inclination": ".4391859514771327",
        "ascending_node_longitude": "335.971128103176",
        "orbital_period": "1668.486233653354",
        "perihelion_distance": ".7834720064281706",
        "perihelion_argument": "79.37881177016216",
        "aphelion_distance": "4.722653792954378",
        "perihelion_time": "2458781.583710873396",
        "mean_anomaly": "349.625244988375",
        "mean_motion": ".2157644412874394",
        "equinox": "J2000",
        "orbit_class": {
            "orbit_class_type": "APO",
            "orbit_class_description": "Near-Earth asteroid orbits which cross the Earth’s orbit similar to that of 1862 Apollo",
            "orbit_class_range": "a (semi-major axis) > 1.0 AU; q (perihelion) < 1.017 AU"
        }
    },
    "is_sentry_object": false
}